start=new Date('2023-01-08T00:00:00.000Z').valueOf();
sats=[{"EPOCH":"2023-01-07T21:27:30.130272","PERIAPSIS":"546.037","TLE_LINE1":"1 46129U 20057N   23007.89409873  .00005260  00000-0  37188-3 0  9999","REF_FRAME":"TEME","APOAPSIS":"548.469","REV_AT_EPOCH":"13227","OBJECT_ID":"2020-057N","MEAN_ELEMENT_THEORY":"SGP4","EPHEMERIS_TYPE":"0","ARG_OF_PERICENTER":"51.5560","CLASSIFICATION_TYPE":"U","FILE":"3735488","TLE_LINE2":"2 46129  53.0543  69.6778 0001756  51.5560 308.5587 15.06387160132276","MEAN_MOTION_DOT":"0.00005260","ECCENTRICITY":"0.00017560","BSTAR":"0.00037188000000","INCLINATION":"53.0543","CENTER_NAME":"EARTH","GP_ID":"222421266","SEMIMAJOR_AXIS":"6925.388","RA_OF_ASC_NODE":"69.6778","SITE":"AFETR","MEAN_ANOMALY":"308.5587","RCS_SIZE":"LARGE","OBJECT_TYPE":"PAYLOAD","DECAY_DATE":null,"LAUNCH_DATE":"2020-08-18","NORAD_CAT_ID":"46129","OBJECT_NAME":"STARLINK-1623","TIME_SYSTEM":"UTC","MEAN_MOTION_DDOT":"0.0000000000000","PERIOD":"95.593","COUNTRY_CODE":"US","MEAN_MOTION":"15.06387160","ELEMENT_SET_NO":"999"},{"BSTAR":"0.00041041000000","INCLINATION":"53.0535","EPHEMERIS_TYPE":"0","MEAN_ELEMENT_THEORY":"SGP4","OBJECT_ID":"2020-057P","PERIAPSIS":"545.785","TLE_LINE1":"1 46130U 20057P   23007.86091660  .00005836  00000-0  41041-3 0  9991","APOAPSIS":"548.673","REV_AT_EPOCH":"13351","REF_FRAME":"TEME","EPOCH":"2023-01-07T20:39:43.194240","ECCENTRICITY":"0.00020850","MEAN_MOTION_DOT":"0.00005836","FILE":"3735488","TLE_LINE2":"2 46130  53.0535  69.8197 0002085  23.1725 336.9358 15.06395025133518","CLASSIFICATION_TYPE":"U","ARG_OF_PERICENTER":"23.1725","OBJECT_NAME":"STARLINK-1624","MEAN_MOTION":"15.06395025","ELEMENT_SET_NO":"999","COUNTRY_CODE":"US","MEAN_MOTION_DDOT":"0.0000000000000","TIME_SYSTEM":"UTC","PERIOD":"95.592","RCS_SIZE":"LARGE","SITE":"AFETR","MEAN_ANOMALY":"336.9358","RA_OF_ASC_NODE":"69.8197","SEMIMAJOR_AXIS":"6925.364","CENTER_NAME":"EARTH","GP_ID":"222420015","DECAY_DATE":null,"LAUNCH_DATE":"2020-08-18","NORAD_CAT_ID":"46130","OBJECT_TYPE":"PAYLOAD"},{"BSTAR":"0.00022296000000","INCLINATION":"53.0565","OBJECT_ID":"2020-057Q","MEAN_ELEMENT_THEORY":"SGP4","EPHEMERIS_TYPE":"0","EPOCH":"2023-01-07T16:11:40.285248","PERIAPSIS":"545.955","TLE_LINE1":"1 46131U 20057Q   23007.67477182  .00003041  00000-0  22296-3 0  9995","REV_AT_EPOCH":"13321","APOAPSIS":"548.480","REF_FRAME":"TEME","FILE":"3735488","TLE_LINE2":"2 46131  53.0565  90.6629 0001823  41.1650 318.9476 15.06398630133213","ECCENTRICITY":"0.00018230","MEAN_MOTION_DOT":"0.00003041","ARG_OF_PERICENTER":"41.1650","CLASSIFICATION_TYPE":"U","OBJECT_NAME":"STARLINK-1625","MEAN_MOTION":"15.06398630","ELEMENT_SET_NO":"999","TIME_SYSTEM":"UTC","MEAN_MOTION_DDOT":"0.0000000000000","PERIOD":"95.592","COUNTRY_CODE":"US","MEAN_ANOMALY":"318.9476","SITE":"AFETR","RCS_SIZE":"LARGE","GP_ID":"222420766","CENTER_NAME":"EARTH","SEMIMAJOR_AXIS":"6925.353","RA_OF_ASC_NODE":"90.6629","DECAY_DATE":null,"LAUNCH_DATE":"2020-08-18","NORAD_CAT_ID":"46131","OBJECT_TYPE":"PAYLOAD"},{"OBJECT_TYPE":"PAYLOAD","NORAD_CAT_ID":"46132","LAUNCH_DATE":"2020-08-18","DECAY_DATE":null,"CENTER_NAME":"EARTH","GP_ID":"222421516","RA_OF_ASC_NODE":"111.0846","SEMIMAJOR_AXIS":"6925.359","SITE":"AFETR","MEAN_ANOMALY":"294.5016","RCS_SIZE":"LARGE","PERIOD":"95.592","MEAN_MOTION_DDOT":"0.0000000000000","TIME_SYSTEM":"UTC","COUNTRY_CODE":"US","ELEMENT_SET_NO":"999","MEAN_MOTION":"15.06396625","OBJECT_NAME":"STARLINK-1630","ARG_OF_PERICENTER":"65.6133","CLASSIFICATION_TYPE":"U","TLE_LINE2":"2 46132  53.0542 111.0846 0001531  65.6133 294.5016 15.06396625132929","FILE":"3735488","MEAN_MOTION_DOT":"-0.00000148","ECCENTRICITY":"0.00015310","EPOCH":"2023-01-07T13:56:19.449024","REV_AT_EPOCH":"13292","APOAPSIS":"548.284","REF_FRAME":"TEME","TLE_LINE1":"1 46132U 20057R   23007.58078066 -.00000148  00000-0  89846-5 0  9996","PERIAPSIS":"546.164","OBJECT_ID":"2020-057R","MEAN_ELEMENT_THEORY":"SGP4","EPHEMERIS_TYPE":"0","INCLINATION":"53.0542","BSTAR":"0.00000898460000"},{"OBJECT_NAME":"STARLINK-1637","ELEMENT_SET_NO":"999","MEAN_MOTION":"15.06402755","COUNTRY_CODE":"US","PERIOD":"95.592","TIME_SYSTEM":"UTC","MEAN_MOTION_DDOT":"0.0000000000000","RCS_SIZE":"LARGE","MEAN_ANOMALY":"326.0980","SITE":"AFETR","SEMIMAJOR_AXIS":"6925.340","RA_OF_ASC_NODE":"71.0972","GP_ID":"222421766","CENTER_NAME":"EARTH","NORAD_CAT_ID":"46133","LAUNCH_DATE":"2020-08-18","DECAY_DATE":null,"OBJECT_TYPE":"PAYLOAD","BSTAR":"0.00002153700000","INCLINATION":"53.0557","EPHEMERIS_TYPE":"0","MEAN_ELEMENT_THEORY":"SGP4","OBJECT_ID":"2020-057S","APOAPSIS":"548.681","REF_FRAME":"TEME","REV_AT_EPOCH":"13347","TLE_LINE1":"1 46133U 20057S   23007.58077728  .00000039  00000-0  21537-4 0  9991","PERIAPSIS":"545.729","EPOCH":"2023-01-07T13:56:19.156992","MEAN_MOTION_DOT":"0.00000039","ECCENTRICITY":"0.00021310","TLE_LINE2":"2 46133  53.0557  71.0972 0002131  34.0145 326.0980 15.06402755133475","FILE":"3735488","CLASSIFICATION_TYPE":"U","ARG_OF_PERICENTER":"34.0145"},{"TLE_LINE2":"2 46134  53.0528  71.6621 0002107  41.4687 318.6462 15.06407513132206","FILE":"3735488","ECCENTRICITY":"0.00021070","MEAN_MOTION_DOT":"0.00005536","ARG_OF_PERICENTER":"41.4687","CLASSIFICATION_TYPE":"U","OBJECT_ID":"2020-057T","MEAN_ELEMENT_THEORY":"SGP4","EPHEMERIS_TYPE":"0","EPOCH":"2023-01-07T10:49:11.272224","APOAPSIS":"548.650","REV_AT_EPOCH":"13220","REF_FRAME":"TEME","TLE_LINE1":"1 46134U 20057T   23007.45082491  .00005536  00000-0  39021-3 0  9994","PERIAPSIS":"545.731","INCLINATION":"53.0528","BSTAR":"0.00039021000000","NORAD_CAT_ID":"46134","LAUNCH_DATE":"2020-08-18","DECAY_DATE":null,"OBJECT_TYPE":"PAYLOAD","MEAN_ANOMALY":"318.6462","SITE":"AFETR","RCS_SIZE":"LARGE","CENTER_NAME":"EARTH","GP_ID":"222420516","SEMIMAJOR_AXIS":"6925.326","RA_OF_ASC_NODE":"71.6621","ELEMENT_SET_NO":"999","MEAN_MOTION":"15.06407513","PERIOD":"95.592","MEAN_MOTION_DDOT":"0.0000000000000","TIME_SYSTEM":"UTC","COUNTRY_CODE":"US","OBJECT_NAME":"STARLINK-1638"},{"INCLINATION":"53.0545","BSTAR":"-0.00006045400000","ECCENTRICITY":"0.00021370","MEAN_MOTION_DOT":"-0.00001182","FILE":"3735488","TLE_LINE2":"2 46135  53.0545  69.8199 0002137  32.9666 327.1455 15.06388275132266","CLASSIFICATION_TYPE":"U","ARG_OF_PERICENTER":"32.9666","EPHEMERIS_TYPE":"0","OBJECT_ID":"2020-057U","MEAN_ELEMENT_THEORY":"SGP4","TLE_LINE1":"1 46135U 20057U   23007.86460675 -.00001182  00000-0 -60454-4 0  9994","PERIAPSIS":"545.770","REF_FRAME":"TEME","APOAPSIS":"548.729","REV_AT_EPOCH":"13226","EPOCH":"2023-01-07T20:45:02.023200","MEAN_MOTION":"15.06388275","ELEMENT_SET_NO":"999","COUNTRY_CODE":"US","TIME_SYSTEM":"UTC","MEAN_MOTION_DDOT":"0.0000000000000","PERIOD":"95.593","OBJECT_NAME":"STARLINK-1639","DECAY_DATE":null,"NORAD_CAT_ID":"46135","LAUNCH_DATE":"2020-08-18","OBJECT_TYPE":"PAYLOAD","RCS_SIZE":"LARGE","MEAN_ANOMALY":"327.1455","SITE":"AFETR","SEMIMAJOR_AXIS":"6925.384","RA_OF_ASC_NODE":"69.8199","CENTER_NAME":"EARTH","GP_ID":"222420266"},{"FILE":"3735488","TLE_LINE2":"2 46136  53.0532 100.7636 0002025  32.8814 327.2301 15.06400950131810","ECCENTRICITY":"0.00020250","MEAN_MOTION_DOT":"0.00012817","ARG_OF_PERICENTER":"32.8814","CLASSIFICATION_TYPE":"U","OBJECT_ID":"2020-057V","MEAN_ELEMENT_THEORY":"SGP4","EPHEMERIS_TYPE":"0","EPOCH":"2023-01-07T15:31:49.858176","TLE_LINE1":"1 46136U 20057V   23007.64710484  .00012817  00000-0  87775-3 0  9996","PERIAPSIS":"545.808","APOAPSIS":"548.613","REF_FRAME":"TEME","REV_AT_EPOCH":"13181","INCLINATION":"53.0532","BSTAR":"0.00087775000000","DECAY_DATE":null,"NORAD_CAT_ID":"46136","LAUNCH_DATE":"2020-08-18","OBJECT_TYPE":"PAYLOAD","MEAN_ANOMALY":"327.2301","SITE":"AFETR","RCS_SIZE":"LARGE","CENTER_NAME":"EARTH","GP_ID":"222421016","RA_OF_ASC_NODE":"100.7636","SEMIMAJOR_AXIS":"6925.346","MEAN_MOTION":"15.06400950","ELEMENT_SET_NO":"999","MEAN_MOTION_DDOT":"0.0000000000000","TIME_SYSTEM":"UTC","PERIOD":"95.592","COUNTRY_CODE":"US","OBJECT_NAME":"STARLINK-1643"},{"TIME_SYSTEM":"UTC","MEAN_MOTION_DDOT":"0.0000000000000","PERIOD":"95.592","COUNTRY_CODE":"US","MEAN_MOTION":"15.06396357","ELEMENT_SET_NO":"999","OBJECT_NAME":"STARLINK-1586","OBJECT_TYPE":"PAYLOAD","DECAY_DATE":null,"LAUNCH_DATE":"2020-08-18","NORAD_CAT_ID":"46137","CENTER_NAME":"EARTH","GP_ID":"222421267","RA_OF_ASC_NODE":"90.7001","SEMIMAJOR_AXIS":"6925.360","MEAN_ANOMALY":"293.4144","SITE":"AFETR","RCS_SIZE":"LARGE","INCLINATION":"53.0534","BSTAR":"0.00074346000000","ARG_OF_PERICENTER":"66.7011","CLASSIFICATION_TYPE":"U","FILE":"3735488","TLE_LINE2":"2 46137  53.0534  90.7001 0001575  66.7011 293.4144 15.06396357131950","ECCENTRICITY":"0.00015750","MEAN_MOTION_DOT":"0.00010808","EPOCH":"2023-01-07T16:01:03.891360","TLE_LINE1":"1 46137U 20057W   23007.66740615  .00010808  00000-0  74346-3 0  9996","PERIAPSIS":"546.134","REF_FRAME":"TEME","APOAPSIS":"548.315","REV_AT_EPOCH":"13195","MEAN_ELEMENT_THEORY":"SGP4","OBJECT_ID":"2020-057W","EPHEMERIS_TYPE":"0"},{"EPOCH":"2023-01-07T15:58:24.856608","REV_AT_EPOCH":"13167","APOAPSIS":"548.316","REF_FRAME":"TEME","TLE_LINE1":"1 46138U 20057X   23007.66556547  .00009735  00000-0  67169-3 0  9998","PERIAPSIS":"546.165","MEAN_ELEMENT_THEORY":"SGP4","OBJECT_ID":"2020-057X","EPHEMERIS_TYPE":"0","ARG_OF_PERICENTER":"55.7971","CLASSIFICATION_TYPE":"U","TLE_LINE2":"2 46138  53.0524 110.7075 0001553  55.7971 304.3165 15.06391186131672","FILE":"3735488","MEAN_MOTION_DOT":"0.00009735","ECCENTRICITY":"0.00015530","BSTAR":"0.00067169000000","INCLINATION":"53.0524","GP_ID":"222420016","CENTER_NAME":"EARTH","RA_OF_ASC_NODE":"110.7075","SEMIMAJOR_AXIS":"6925.376","SITE":"AFETR","MEAN_ANOMALY":"304.3165","RCS_SIZE":"LARGE","OBJECT_TYPE":"PAYLOAD","NORAD_CAT_ID":"46138","LAUNCH_DATE":"2020-08-18","DECAY_DATE":null,"OBJECT_NAME":"STARLINK-1590","PERIOD":"95.593","TIME_SYSTEM":"UTC","MEAN_MOTION_DDOT":"0.0000000000000","COUNTRY_CODE":"US","ELEMENT_SET_NO":"999","MEAN_MOTION":"15.06391186"}];
